EUTELSAT 21B            
1 38992U 12062B   25352.97058703  .00000155  00000+0  00000+0 0  9997
2 38992   0.0704 336.6830 0003253 295.3091 186.8638  1.00267672 48020
EUTELSAT 70B            
1 39020U 12069A   25352.92544839 -.00000018  00000+0  00000+0 0  9991
2 39020   0.0608   0.7537 0004295 251.5762 239.1053  1.00271312 47708
EUTELSAT 117 WEST A     
1 39122U 13012A   25352.95884007  .00000012  00000+0  00000+0 0  9993
2 39122   0.0289  47.8099 0002706 224.9599  43.4335  1.00272954 46620
EUTELSAT 7B             
1 39163U 13022A   25352.84071265  .00000073  00000+0  00000+0 0  9998
2 39163   0.0652 356.1104 0004270 326.7712  74.4777  1.00269498 46137
EXPRESS-AT1             
1 39612U 14010A   25352.85041938  .00000104  00000+0  00000+0 0  9995
2 39612   0.0193 300.1810 0000591 185.8396 323.8349  1.00271181 43015
EXPRESS-AT2             
1 39613U 14010B   25352.93838661 -.00000256  00000+0  00000+0 0  9991
2 39613   0.0130 301.9106 0001006 346.7821 276.7770  1.00271791 42691
EUTELSAT 3B             
1 39773U 14030A   25352.88433568  .00000045  00000+0  00000+0 0  9996
2 39773   0.0604   3.0827 0004197 229.2021 176.9063  1.00272279 42255
EUTELSAT 115 WEST B     
1 40425U 15010B   25352.95918674  .00000000  00000+0  00000+0 0  9996
2 40425   0.0161 149.2312 0000401 160.3744   8.6176  1.00271755 39588
